GLOBALSTAR M084         
1 38040U 11080A   24356.86693105 -.00000093  00000+0  59785-4 0  9993
2 38040  51.9992 228.3020 0001200  62.8540  41.2959 12.62272756600272
GLOBALSTAR M080         
1 38041U 11080B   24356.92260191 -.00000084  00000+0  10849-3 0  9993
2 38041  52.0045 229.6792 0001123  46.8081  69.2199 12.62259672600403
GLOBALSTAR M082         
1 38042U 11080C   24356.94237671 -.00000091  00000+0  73564-4 0  9995
2 38042  52.0043 185.0441 0001348 110.3942  36.2851 12.62271563601111
GLOBALSTAR M092         
1 38043U 11080D   24356.88993227 -.00000081  00000+0  12584-3 0  9998
2 38043  52.0088 275.5713 0000872  61.9104 326.3768 12.62270779599563
GLOBALSTAR M090         
1 38044U 11080E   24356.88997039 -.00000101  00000+0  13393-4 0  9997
2 38044  51.9857 179.2396 0001091 101.8842  46.6615 12.62265188601228
GLOBALSTAR M086         
1 38045U 11080F   24356.91530149 -.00000095  00000+0  47686-4 0  9991
2 38045  51.9864 179.6995 0000346  50.0174  94.1556 12.62264965601179
GLOBALSTAR M097         
1 39072U 13005A   24356.67281955 -.00000100  00000+0  19506-4 0  9999
2 39072  52.0049  94.8050 0000680 133.9676 226.1247 12.62268158548392
GLOBALSTAR M093         
1 39073U 13005B   24356.72494569 -.00000086  00000+0  97504-4 0  9990
2 39073  51.9815  88.2287 0000726 142.0965 217.9953 12.62277362548359
